start=new Date('2023-06-18T00:00:00.000Z').valueOf();
sats=[{"MEAN_MOTION":"15.04573972","SITE":"AFETR","MEAN_ELEMENT_THEORY":"SGP4","ECCENTRICITY":"0.00016250","APOAPSIS":"553.942","FILE":"3935891","INCLINATION":"43.0001","CENTER_NAME":"EARTH","EPOCH":"2023-06-17T22:00:01.999584","REV_AT_EPOCH":"130","MEAN_ANOMALY":"231.3573","CLASSIFICATION_TYPE":"U","PERIOD":"95.708","ARG_OF_PERICENTER":"271.9652","TLE_LINE2":"2 56298  43.0001 221.4871 0001625 271.9652 231.3573 15.04573972  1302","MEAN_MOTION_DOT":"-0.00150202","OBJECT_TYPE":"PAYLOAD","NORAD_CAT_ID":"56298","BSTAR":"-0.01074200000000","TIME_SYSTEM":"UTC","OBJECT_NAME":"STARLINK-30109","TLE_LINE1":"1 56298U 23056N   23168.91668981 -.00150202  00000-0 -10742-1 0  9991","MEAN_MOTION_DDOT":"0.0000000000000","EPHEMERIS_TYPE":"0","LAUNCH_DATE":"2023-04-19","COUNTRY_CODE":"US","GP_ID":"234175238","RCS_SIZE":"LARGE","DECAY_DATE":null,"ELEMENT_SET_NO":"999","OBJECT_ID":"2023-056N","RA_OF_ASC_NODE":"221.4871","SEMIMAJOR_AXIS":"6930.951","REF_FRAME":"TEME","PERIAPSIS":"551.689"},{"EPOCH":"2023-06-17T22:00:01.999584","CENTER_NAME":"EARTH","FILE":"3935891","INCLINATION":"43.0002","APOAPSIS":"523.832","MEAN_ANOMALY":"56.4832","CLASSIFICATION_TYPE":"U","REV_AT_EPOCH":"130","MEAN_ELEMENT_THEORY":"SGP4","MEAN_MOTION":"15.14307134","SITE":"AFETR","ECCENTRICITY":"0.00010830","MEAN_MOTION_DOT":"0.00008369","TLE_LINE2":"2 56299  43.0002 212.3065 0001083 263.9656  56.4832 15.14307134  1301","ARG_OF_PERICENTER":"263.9656","BSTAR":"0.00046063000000","NORAD_CAT_ID":"56299","OBJECT_TYPE":"PAYLOAD","PERIOD":"95.093","LAUNCH_DATE":"2023-04-19","EPHEMERIS_TYPE":"0","MEAN_MOTION_DDOT":"0.0000000000000","GP_ID":"234174989","COUNTRY_CODE":"US","OBJECT_NAME":"STARLINK-30108","TIME_SYSTEM":"UTC","TLE_LINE1":"1 56299U 23056P   23168.91668981  .00008369  00000-0  46063-3 0  9993","REF_FRAME":"TEME","PERIAPSIS":"522.337","ELEMENT_SET_NO":"999","DECAY_DATE":null,"RCS_SIZE":"LARGE","SEMIMAJOR_AXIS":"6901.220","RA_OF_ASC_NODE":"212.3065","OBJECT_ID":"2023-056P"},{"MEAN_ANOMALY":"102.1314","CLASSIFICATION_TYPE":"U","REV_AT_EPOCH":"1023","CENTER_NAME":"EARTH","EPOCH":"2023-06-17T20:10:09.607008","FILE":"3935891","INCLINATION":"42.9988","APOAPSIS":"524.147","ECCENTRICITY":"0.00015210","MEAN_ELEMENT_THEORY":"SGP4","SITE":"AFETR","MEAN_MOTION":"15.14303167","BSTAR":"0.00016285000000","NORAD_CAT_ID":"56300","OBJECT_TYPE":"PAYLOAD","TLE_LINE2":"2 56300  42.9988 225.5716 0001521 257.9362 102.1314 15.14303167 10236","MEAN_MOTION_DOT":"0.00002808","ARG_OF_PERICENTER":"257.9362","PERIOD":"95.093","GP_ID":"234173737","COUNTRY_CODE":"US","LAUNCH_DATE":"2023-04-19","EPHEMERIS_TYPE":"0","MEAN_MOTION_DDOT":"0.0000000000000","TLE_LINE1":"1 56300U 23056Q   23168.84038897  .00002808  00000-0  16285-3 0  9990","OBJECT_NAME":"STARLINK-30104","TIME_SYSTEM":"UTC","PERIAPSIS":"522.047","REF_FRAME":"TEME","SEMIMAJOR_AXIS":"6901.232","RA_OF_ASC_NODE":"225.5716","OBJECT_ID":"2023-056Q","ELEMENT_SET_NO":"999","DECAY_DATE":null,"RCS_SIZE":"LARGE"},{"PERIOD":"95.092","OBJECT_TYPE":"PAYLOAD","NORAD_CAT_ID":"56301","BSTAR":"0.00020352000000","ARG_OF_PERICENTER":"282.0501","TLE_LINE2":"2 56301  42.9994 226.1295 0001584 282.0501  78.0168 15.14317073 10202","MEAN_MOTION_DOT":"0.00003568","ECCENTRICITY":"0.00015840","SITE":"AFETR","MEAN_MOTION":"15.14317073","MEAN_ELEMENT_THEORY":"SGP4","REV_AT_EPOCH":"1020","CLASSIFICATION_TYPE":"U","MEAN_ANOMALY":"78.0168","APOAPSIS":"524.148","INCLINATION":"42.9994","FILE":"3935891","EPOCH":"2023-06-17T13:40:50.269728","CENTER_NAME":"EARTH","OBJECT_ID":"2023-056R","RA_OF_ASC_NODE":"226.1295","SEMIMAJOR_AXIS":"6901.190","RCS_SIZE":"LARGE","DECAY_DATE":null,"ELEMENT_SET_NO":"999","PERIAPSIS":"521.961","REF_FRAME":"TEME","TLE_LINE1":"1 56301U 23056R   23168.57002627  .00003568  00000-0  20352-3 0  9997","TIME_SYSTEM":"UTC","OBJECT_NAME":"STARLINK-30101","COUNTRY_CODE":"US","GP_ID":"234173987","MEAN_MOTION_DDOT":"0.0000000000000","EPHEMERIS_TYPE":"0","LAUNCH_DATE":"2023-04-19"},{"TIME_SYSTEM":"UTC","OBJECT_NAME":"STARLINK-30111","TLE_LINE1":"1 56302U 23056S   23168.91668981 -.00729044  00000-0 -52189-1 0  9994","MEAN_MOTION_DDOT":"0.0000000000000","EPHEMERIS_TYPE":"0","LAUNCH_DATE":"2023-04-19","COUNTRY_CODE":"US","GP_ID":"234148792","RCS_SIZE":"LARGE","DECAY_DATE":null,"ELEMENT_SET_NO":"999","OBJECT_ID":"2023-056S","RA_OF_ASC_NODE":"221.1521","SEMIMAJOR_AXIS":"6924.956","REF_FRAME":"TEME","PERIAPSIS":"545.875","SITE":"AFETR","MEAN_MOTION":"15.06528203","MEAN_ELEMENT_THEORY":"SGP4","ECCENTRICITY":"0.00013650","APOAPSIS":"547.766","INCLINATION":"42.9980","FILE":"3935864","EPOCH":"2023-06-17T22:00:01.999584","CENTER_NAME":"EARTH","REV_AT_EPOCH":"963","CLASSIFICATION_TYPE":"U","MEAN_ANOMALY":"10.7166","PERIOD":"95.584","ARG_OF_PERICENTER":"271.7511","TLE_LINE2":"2 56302  42.9980 221.1521 0001365 271.7511  10.7166 15.06528203  9634","MEAN_MOTION_DOT":"-0.00729044","OBJECT_TYPE":"PAYLOAD","NORAD_CAT_ID":"56302","BSTAR":"-0.05218900000000"},{"TLE_LINE1":"1 56303U 23056T   23168.87083323 -.00031283  00000-0 -19357-2 0  9993","OBJECT_NAME":"STARLINK-30097","TIME_SYSTEM":"UTC","GP_ID":"234175489","COUNTRY_CODE":"US","LAUNCH_DATE":"2023-04-19","EPHEMERIS_TYPE":"0","MEAN_MOTION_DDOT":"0.0000000000000","SEMIMAJOR_AXIS":"6917.126","OBJECT_ID":"2023-056T","RA_OF_ASC_NODE":"221.4837","ELEMENT_SET_NO":"999","DECAY_DATE":null,"RCS_SIZE":"LARGE","PERIAPSIS":"538.365","REF_FRAME":"TEME","ECCENTRICITY":"0.00009050","MEAN_ELEMENT_THEORY":"SGP4","SITE":"AFETR","MEAN_MOTION":"15.09086747","MEAN_ANOMALY":"94.9653","CLASSIFICATION_TYPE":"U","REV_AT_EPOCH":"1028","EPOCH":"2023-06-17T20:53:59.991072","CENTER_NAME":"EARTH","FILE":"3935891","INCLINATION":"42.9998","APOAPSIS":"539.617","PERIOD":"95.422","BSTAR":"-0.00193570000000","NORAD_CAT_ID":"56303","OBJECT_TYPE":"PAYLOAD","MEAN_MOTION_DOT":"-0.00031283","TLE_LINE2":"2 56303  42.9998 221.4837 0000905 265.1088  94.9653 15.09086747 10285","ARG_OF_PERICENTER":"265.1088"},{"DECAY_DATE":null,"RCS_SIZE":"LARGE","ELEMENT_SET_NO":"999","SEMIMAJOR_AXIS":"6930.117","OBJECT_ID":"2023-056U","RA_OF_ASC_NODE":"221.3194","REF_FRAME":"TEME","PERIAPSIS":"550.946","TIME_SYSTEM":"UTC","OBJECT_NAME":"STARLINK-30099","TLE_LINE1":"1 56304U 23056U   23168.84948444 -.00067420  00000-0 -47230-2 0  9998","EPHEMERIS_TYPE":"0","MEAN_MOTION_DDOT":"0.0000000000000","LAUNCH_DATE":"2023-04-19","COUNTRY_CODE":"US","GP_ID":"234174237","PERIOD":"95.691","ARG_OF_PERICENTER":"208.3747","MEAN_MOTION_DOT":"-0.00067420","TLE_LINE2":"2 56304  43.0022 221.3194 0001495 208.3747 151.7015 15.04845580 10284","OBJECT_TYPE":"PAYLOAD","BSTAR":"-0.00472300000000","NORAD_CAT_ID":"56304","MEAN_MOTION":"15.04845580","SITE":"AFETR","MEAN_ELEMENT_THEORY":"SGP4","ECCENTRICITY":"0.00014950","APOAPSIS":"553.018","EPOCH":"2023-06-17T20:23:15.455616","CENTER_NAME":"EARTH","INCLINATION":"43.0022","FILE":"3935891","REV_AT_EPOCH":"1028","CLASSIFICATION_TYPE":"U","MEAN_ANOMALY":"151.7015"},{"OBJECT_ID":"2023-056V","RA_OF_ASC_NODE":"222.5984","SEMIMAJOR_AXIS":"6886.050","RCS_SIZE":"LARGE","DECAY_DATE":null,"ELEMENT_SET_NO":"999","PERIAPSIS":"507.532","REF_FRAME":"TEME","TLE_LINE1":"1 56305U 23056V   23168.56033481  .00021408  00000-0  10032-2 0  9998","TIME_SYSTEM":"UTC","OBJECT_NAME":"STARLINK-30094","COUNTRY_CODE":"US","GP_ID":"234174487","MEAN_MOTION_DDOT":"0.0000000000000","EPHEMERIS_TYPE":"0","LAUNCH_DATE":"2023-04-19","PERIOD":"94.780","OBJECT_TYPE":"PAYLOAD","NORAD_CAT_ID":"56305","BSTAR":"0.00100320000000","ARG_OF_PERICENTER":"252.3264","TLE_LINE2":"2 56305  42.9978 222.5984 0000557 252.3264 107.7524 15.19313813 10241","MEAN_MOTION_DOT":"0.00021408","ECCENTRICITY":"0.00005570","MEAN_MOTION":"15.19313813","SITE":"AFETR","MEAN_ELEMENT_THEORY":"SGP4","REV_AT_EPOCH":"1024","CLASSIFICATION_TYPE":"U","MEAN_ANOMALY":"107.7524","APOAPSIS":"508.299","FILE":"3935891","INCLINATION":"42.9978","EPOCH":"2023-06-17T13:26:52.927584","CENTER_NAME":"EARTH"},{"PERIOD":"95.567","BSTAR":"-0.05183400000000","NORAD_CAT_ID":"56306","OBJECT_TYPE":"PAYLOAD","TLE_LINE2":"2 56306  42.9977 221.0946 0001342 268.4589  37.7679 15.06791859  9634","MEAN_MOTION_DOT":"-0.00729287","ARG_OF_PERICENTER":"268.4589","ECCENTRICITY":"0.00013420","MEAN_ELEMENT_THEORY":"SGP4","SITE":"AFETR","MEAN_MOTION":"15.06791859","CLASSIFICATION_TYPE":"U","MEAN_ANOMALY":"37.7679","REV_AT_EPOCH":"963","CENTER_NAME":"EARTH","EPOCH":"2023-06-17T22:00:01.999584","INCLINATION":"42.9977","FILE":"3935865","APOAPSIS":"546.942","SEMIMAJOR_AXIS":"6924.148","OBJECT_ID":"2023-056W","RA_OF_ASC_NODE":"221.0946","ELEMENT_SET_NO":"999","DECAY_DATE":null,"RCS_SIZE":"LARGE","PERIAPSIS":"545.084","REF_FRAME":"TEME","TLE_LINE1":"1 56306U 23056W   23168.91668981 -.00729287  00000-0 -51834-1 0  9993","OBJECT_NAME":"STARLINK-30112","TIME_SYSTEM":"UTC","GP_ID":"234148796","COUNTRY_CODE":"US","LAUNCH_DATE":"2023-04-19","EPHEMERIS_TYPE":"0","MEAN_MOTION_DDOT":"0.0000000000000"},{"REF_FRAME":"TEME","PERIAPSIS":"561.845","ELEMENT_SET_NO":"999","RCS_SIZE":"LARGE","DECAY_DATE":null,"RA_OF_ASC_NODE":"169.9124","OBJECT_ID":"2023-058A","SEMIMAJOR_AXIS":"6941.220","LAUNCH_DATE":"2023-04-27","MEAN_MOTION_DDOT":"0.0000000000000","EPHEMERIS_TYPE":"0","GP_ID":"234173739","COUNTRY_CODE":"US","OBJECT_NAME":"STARLINK-6038","TIME_SYSTEM":"UTC","TLE_LINE1":"1 56317U 23058A   23168.91668981  .00051041  00000-0  39522-2 0  9992","TLE_LINE2":"2 56317  97.6545 169.9124 0001786  91.7951  49.0201 15.01236217  1304","MEAN_MOTION_DOT":"0.00051041","ARG_OF_PERICENTER":"91.7951","NORAD_CAT_ID":"56317","BSTAR":"0.00395220000000","OBJECT_TYPE":"PAYLOAD","PERIOD":"95.921","FILE":"3935891","INCLINATION":"97.6545","EPOCH":"2023-06-17T22:00:01.999584","CENTER_NAME":"EARTH","APOAPSIS":"564.325","MEAN_ANOMALY":"49.0201","CLASSIFICATION_TYPE":"U","REV_AT_EPOCH":"130","MEAN_ELEMENT_THEORY":"SGP4","MEAN_MOTION":"15.01236217","SITE":"AFWTR","ECCENTRICITY":"0.00017860"}];
